{"type": "FeatureCollection", "features": [{"type": "Feature", "properties": {"nev": "Balaton"}, "geometry": {"type": "Polygon", "coordinates": [[[17.2435227, 46.7255132], [17.2456542, 46.7251201], [17.2479558, 46.7136937], [17.2583628, 46.7094086], [17.2599721, 46.7106518], [17.2597843, 46.7091695], [17.2636467, 46.7071758], [17.2643885, 46.7054427], [17.286011, 46.7108762], [17.2975069, 46.7107475], [17.2999988, 46.7129814], [17.3093377, 46.7155952], [17.320438, 46.7147284], [17.329974, 46.7167243], [17.3294724, 46.7160752], [17.3334524, 46.7160231], [17.3303395, 46.7162627], [17.3308542, 46.7170017], [17.3534432, 46.7103759], [17.3586919, 46.7096294], [17.3595824, 46.7108265], [17.3761909, 46.7075535], [17.3916543, 46.7062532], [17.4092616, 46.7066616], [17.4117855, 46.7049271], [17.4138907, 46.7064862], [17.4343716, 46.7080186], [17.4336213, 46.7064161], [17.4357472, 46.7078813], [17.4451608, 46.7094281], [17.4536931, 46.7101574], [17.4541133, 46.70932], [17.4764057, 46.7144322], [17.4770939, 46.7127017], [17.4765384, 46.7144244], [17.5023196, 46.7212189], [17.5161936, 46.7258393], [17.5204544, 46.7282075], [17.5195417, 46.7295161], [17.5231093, 46.730972], [17.5283334, 46.7312021], [17.5283755, 46.7330787], [17.5386937, 46.741776], [17.5526337, 46.7498368], [17.5538865, 46.7514082], [17.5523735, 46.7528294], [17.5527957, 46.7528355], [17.5542729, 46.7510434], [17.5543272, 46.7507756], [17.5529458, 46.749239], [17.5554557, 46.7499003], [17.5533226, 46.753412], [17.5550935, 46.7516943], [17.5588466, 46.7516938], [17.5660982, 46.7544356], [17.5676929, 46.7526472], [17.5668336, 46.7544577], [17.5744182, 46.755265], [17.6152155, 46.7679417], [17.618743, 46.7679956], [17.6253254, 46.7704382], [17.6250132, 46.7713151], [17.6437551, 46.7770328], [17.6453503, 46.7783049], [17.6440666, 46.7795582], [17.6460561, 46.7809267], [17.6452128, 46.7819457], [17.6467009, 46.7815781], [17.6458432, 46.7800503], [17.6467245, 46.7792496], [17.6487372, 46.7802899], [17.645909, 46.7828492], [17.6479104, 46.781583], [17.6535459, 46.7829568], [17.6552203, 46.7817143], [17.6599993, 46.7839059], [17.6709349, 46.7853511], [17.6880231, 46.7902556], [17.6900432, 46.791558], [17.6897148, 46.792546], [17.6916337, 46.7912032], [17.6897576, 46.7937656], [17.6926838, 46.7914031], [17.6988792, 46.7914008], [17.7081418, 46.7942833], [17.7282454, 46.7978902], [17.7291831, 46.7992128], [17.7476425, 46.803577], [17.7652021, 46.8097943], [17.7687213, 46.8129551], [17.7672071, 46.8148085], [17.767272, 46.8153508], [17.7697301, 46.811863], [17.7708372, 46.8122281], [17.7672931, 46.8158418], [17.7703085, 46.8134386], [17.7728355, 46.8133068], [17.7958052, 46.822174], [17.8484439, 46.8396737], [17.8618759, 46.8457185], [17.8661967, 46.8493909], [17.8703931, 46.8499771], [17.8785518, 46.8536534], [17.8796813, 46.8548679], [17.8785476, 46.8575752], [17.881463, 46.8550618], [17.8829035, 46.8557152], [17.8822941, 46.8576093], [17.8962208, 46.8614038], [17.8970945, 46.8636795], [17.9014184, 46.8667056], [17.9042144, 46.8768688], [17.9030182, 46.8784334], [17.8993641, 46.8794422], [17.8983995, 46.87994], [17.9004316, 46.8799208], [17.8990369, 46.8804506], [17.9041081, 46.8795999], [17.9172789, 46.8821529], [17.91914, 46.8837386], [17.9527922, 46.8875185], [17.9634373, 46.8904443], [17.9663635, 46.889783], [17.9751886, 46.8927619], [17.9914774, 46.8948506], [17.9910299, 46.8959], [18.0009424, 46.8976388], [18.0040556, 46.8997622], [18.0167503, 46.9028368], [18.0155767, 46.9035559], [18.0204361, 46.9027413], [18.0352148, 46.9059671], [18.0385434, 46.9071465], [18.0380339, 46.9082985], [18.04009, 46.9089303], [18.0399003, 46.9107745], [18.0410856, 46.9119646], [18.0425193, 46.9125076], [18.041157, 46.9117451], [18.0450801, 46.9063411], [18.0427244, 46.9105774], [18.0440213, 46.9111199], [18.0442845, 46.9090082], [18.0463496, 46.9085745], [18.0428077, 46.9129506], [18.0458172, 46.9108631], [18.0564899, 46.9126895], [18.0631917, 46.9148175], [18.0621915, 46.9163712], [18.0631981, 46.9156434], [18.0799734, 46.921025], [18.1087902, 46.9320905], [18.1110323, 46.9307919], [18.1306856, 46.9415052], [18.148179, 46.9544128], [18.1604051, 46.9711918], [18.1633093, 46.9777499], [18.1622135, 46.9803523], [18.1644748, 46.9854307], [18.1641667, 46.9864374], [18.1611598, 46.9864027], [18.1605507, 46.9867008], [18.1604648, 46.9871837], [18.1611836, 46.9865214], [18.1643216, 46.9865308], [18.1646375, 46.9874575], [18.1610734, 46.9870691], [18.1663851, 46.9880957], [18.168156, 46.9970382], [18.1664319, 46.9976174], [18.1650198, 47.0044083], [18.1628724, 47.0056591], [18.1602545, 47.0111608], [18.1453599, 47.0179248], [18.1463208, 47.018978], [18.1452392, 47.0179999], [18.1386901, 47.0216672], [18.1328512, 47.0230281], [18.1335525, 47.0216173], [18.1290176, 47.0232273], [18.1251401, 47.02651], [18.1144868, 47.0317259], [18.1105704, 47.0305738], [18.1102767, 47.0314632], [18.1052582, 47.0305913], [18.0968531, 47.0321845], [18.0945663, 47.0314021], [18.0828261, 47.0372449], [18.0640824, 47.0418187], [18.0572319, 47.0465117], [18.0548139, 47.050076], [18.0483527, 47.0540272], [18.049397, 47.0550354], [18.0482736, 47.0564176], [18.0470269, 47.0559473], [18.0477738, 47.0547388], [18.0405296, 47.0574255], [18.0420505, 47.0580192], [18.0402851, 47.058789], [18.0382565, 47.0585502], [18.0362778, 47.0629925], [18.0355845, 47.0629125], [18.0375868, 47.0588646], [18.0347017, 47.0559822], [18.0349585, 47.0548677], [18.0323627, 47.0541969], [18.0300369, 47.0508575], [18.0281021, 47.0405843], [18.0314052, 47.0337839], [18.0253804, 47.0285816], [18.0124068, 47.0251048], [18.0101426, 47.0210882], [18.0099861, 47.0197042], [18.0111307, 47.0193101], [18.0098837, 47.0185045], [18.0116885, 47.0192689], [18.0082595, 47.0172453], [18.0091337, 47.0148074], [18.0080179, 47.0148456], [18.0064817, 47.0106969], [18.0054937, 47.0108809], [18.0063434, 47.0105665], [18.0033855, 47.0034615], [17.9896995, 46.991992], [17.9863999, 46.9863111], [17.9796879, 46.9840278], [17.9795372, 46.9827965], [17.9790655, 46.9842309], [17.9752952, 46.9825685], [17.9759737, 46.9836631], [17.974045, 46.9832175], [17.9750852, 46.9822045], [17.9730336, 46.9841302], [17.9719364, 46.9838415], [17.9735462, 46.9824581], [17.9688065, 46.9803924], [17.9650946, 46.9741266], [17.9570577, 46.9742925], [17.9459114, 46.9767327], [17.9428671, 46.9755999], [17.9392844, 46.9704796], [17.9316014, 46.9665011], [17.9174459, 46.967368], [17.9160994, 46.965296], [17.9166657, 46.9624488], [17.9158527, 46.9626848], [17.9170516, 46.9606831], [17.9136375, 46.9570208], [17.9090462, 46.9549946], [17.9031806, 46.9557403], [17.8938687, 46.9530648], [17.895909, 46.9519817], [17.892409, 46.9530402], [17.8910935, 46.9508101], [17.8837818, 46.9483475], [17.8817785, 46.945347], [17.8827577, 46.9448482], [17.8828001, 46.9446319], [17.8824126, 46.9442476], [17.8817521, 46.9452976], [17.8771735, 46.9418797], [17.870681, 46.9403474], [17.8712324, 46.9388658], [17.8698247, 46.9405716], [17.8682195, 46.9400796], [17.8675109, 46.9389163], [17.8695172, 46.9377122], [17.8710372, 46.9384919], [17.8699141, 46.9376261], [17.8695038, 46.9376719], [17.8674747, 46.9388834], [17.8652616, 46.9379354], [17.8658918, 46.9371277], [17.8632316, 46.9341137], [17.8595983, 46.9320741], [17.8599761, 46.9297224], [17.8627901, 46.9275788], [17.8619808, 46.9271899], [17.8660673, 46.9260298], [17.8653788, 46.9252533], [17.8834446, 46.9238183], [17.8901974, 46.9184613], [17.8942346, 46.9177833], [17.8955026, 46.9170879], [17.8929503, 46.9171499], [17.8923793, 46.9146125], [17.8947963, 46.9113325], [17.8929528, 46.9079909], [17.8989052, 46.902535], [17.8979331, 46.8998574], [17.8984766, 46.8991143], [17.8987057, 46.8990881], [17.8996056, 46.89881], [17.8999147, 46.8986219], [17.9000046, 46.8983953], [17.8975351, 46.899215], [17.8973167, 46.8962487], [17.8924732, 46.8882208], [17.8830917, 46.8881207], [17.8823735, 46.8891835], [17.8771407, 46.8899], [17.864667, 46.8976836], [17.8504653, 46.903321], [17.8487665, 46.9132678], [17.8439179, 46.9166742], [17.8388354, 46.9183991], [17.8372019, 46.9223409], [17.8337169, 46.9234967], [17.8287055, 46.9188987], [17.8280633, 46.9169124], [17.8292792, 46.9154481], [17.8268922, 46.9128427], [17.8273322, 46.9109919], [17.8147893, 46.9091625], [17.8111297, 46.9053916], [17.8043692, 46.9020471], [17.803718, 46.8996161], [17.8010086, 46.8970027], [17.7873212, 46.8915024], [17.7864264, 46.892375], [17.7788994, 46.8898991], [17.7741161, 46.8829418], [17.7619493, 46.8825135], [17.7500453, 46.8794643], [17.7428767, 46.8793267], [17.7423232, 46.877869], [17.741713, 46.8789267], [17.7353536, 46.8799808], [17.7259102, 46.8780922], [17.715463, 46.8784095], [17.7138569, 46.8780963], [17.7146205, 46.8739006], [17.7101024, 46.8731502], [17.7100411, 46.8717647], [17.709924, 46.871646], [17.7093306, 46.8714255], [17.7090886, 46.8735027], [17.7080916, 46.8731862], [17.7090491, 46.8720053], [17.6998044, 46.8755264], [17.6938324, 46.8750621], [17.6872253, 46.8705372], [17.6846166, 46.8671573], [17.6831353, 46.8677715], [17.6774771, 46.865923], [17.6758841, 46.8615962], [17.670816, 46.8584242], [17.6659869, 46.8523425], [17.6532638, 46.8440864], [17.6536387, 46.8416973], [17.6465038, 46.8355993], [17.6465675, 46.8300192], [17.6445322, 46.8285924], [17.6360381, 46.8280424], [17.6338026, 46.8262594], [17.6304516, 46.8270891], [17.6289748, 46.826333], [17.6294749, 46.8250296], [17.6269118, 46.8253848], [17.6199418, 46.8223413], [17.6078298, 46.8253854], [17.6017802, 46.8241542], [17.5972025, 46.8214407], [17.5973708, 46.820429], [17.5950669, 46.8201691], [17.5834278, 46.8240976], [17.5820863, 46.8233016], [17.5829272, 46.8225048], [17.5808319, 46.8228279], [17.5766711, 46.8200631], [17.5721671, 46.8124307], [17.5729376, 46.8117149], [17.5699802, 46.8114294], [17.568694, 46.8093132], [17.5619953, 46.8096843], [17.5538316, 46.8051572], [17.5464779, 46.8054295], [17.5409411, 46.8031694], [17.5237698, 46.8055096], [17.5201043, 46.8035286], [17.5203861, 46.8017873], [17.5171914, 46.8007199], [17.5144479, 46.7943416], [17.5082295, 46.7889408], [17.5071401, 46.785998], [17.5004247, 46.7823587], [17.484668, 46.7847826], [17.4726726, 46.7894189], [17.4718635, 46.7882641], [17.4663562, 46.7909465], [17.4613056, 46.7915282], [17.4586431, 46.7916108], [17.4553341, 46.7896569], [17.4530035, 46.7901658], [17.4506412, 46.7862783], [17.4481535, 46.7850213], [17.4360785, 46.7851283], [17.4291341, 46.7868688], [17.4247664, 46.7922127], [17.4144803, 46.7953956], [17.4141209, 46.7971291], [17.4067601, 46.7949569], [17.3897023, 46.795596], [17.3874369, 46.7949739], [17.3872096, 46.7896141], [17.3855539, 46.7868599], [17.3871398, 46.7868805], [17.3778775, 46.7794462], [17.3757206, 46.776336], [17.3730603, 46.7759066], [17.3666615, 46.7706185], [17.3670529, 46.7685503], [17.3580378, 46.7614748], [17.357232, 46.7530974], [17.3476788, 46.7472212], [17.3337975, 46.7504236], [17.3329952, 46.749543], [17.3337188, 46.7510012], [17.3310241, 46.7505961], [17.3292637, 46.753612], [17.3274561, 46.7515588], [17.3155637, 46.7538091], [17.3075714, 46.7535097], [17.3017213, 46.7555352], [17.3033532, 46.7566252], [17.30126, 46.7570052], [17.301445, 46.7556375], [17.2930019, 46.7590164], [17.2934957, 46.7600776], [17.292225, 46.7601312], [17.2928202, 46.7589855], [17.2772798, 46.7636305], [17.2767894, 46.7625925], [17.2768649, 46.7643311], [17.2758757, 46.7643499], [17.2767009, 46.7626028], [17.2678319, 46.7644531], [17.258528, 46.7632187], [17.253855, 46.7589995], [17.2566085, 46.7577871], [17.2519234, 46.7582059], [17.249337, 46.7555288], [17.2490314, 46.7534146], [17.248786, 46.7539748], [17.2476485, 46.7540276], [17.2473527, 46.7536163], [17.2486053, 46.7535555], [17.2466486, 46.7532907], [17.2478337, 46.7518402], [17.2454689, 46.7496699], [17.2465239, 46.7470522], [17.2452025, 46.7434571], [17.2447872, 46.7373339], [17.2449802, 46.7369852], [17.2456016, 46.7370233], [17.2444406, 46.7362313], [17.2454031, 46.7306382], [17.2438427, 46.7282034], [17.2461885, 46.7255986], [17.2435227, 46.7255132]], [[17.2450788, 46.7370923], [17.245199, 46.7372456], [17.2456971, 46.737198], [17.2450788, 46.7370923]], [[17.248088, 46.7538208], [17.247683, 46.7538167], [17.248088, 46.7538601], [17.248088, 46.7538208]], [[17.8803777, 46.8573327], [17.8814354, 46.8575408], [17.8824491, 46.8568556], [17.8813893, 46.8564306], [17.8803777, 46.8573327]], [[17.8987604, 46.8981395], [17.8994278, 46.8984265], [17.8994736, 46.8983636], [17.8987604, 46.8981395]], [[17.9290376, 46.9655077], [17.9288928, 46.9656874], [17.9293299, 46.9655916], [17.9290376, 46.9655077]], [[17.9301417, 46.966044], [17.9299362, 46.9661299], [17.9303024, 46.9662247], [17.9301417, 46.966044]], [[18.1606533, 46.973051], [18.1607089, 46.9736311], [18.1612919, 46.973456], [18.1606533, 46.973051]]]}}]}