{"type": "FeatureCollection", "features": [{"type": "Feature", "properties": {"nev": "Keszthelyi járás", "osm": 2377058}, "geometry": {"type": "Polygon", "coordinates": [[[17.0220529, 46.6603432], [17.0220629, 46.6454821], [17.0366567, 46.6396471], [17.0369067, 46.6476556], [17.0407984, 46.6473401], [17.0414605, 46.6443076], [17.0424253, 46.6481314], [17.0496274, 46.6478802], [17.0486906, 46.6432882], [17.0544675, 46.6365327], [17.0570316, 46.6419158], [17.0538754, 46.6525242], [17.0725308, 46.656657], [17.0754466, 46.6525166], [17.0817299, 46.6621485], [17.0965621, 46.6650765], [17.1005972, 46.6605703], [17.1084271, 46.6584227], [17.114419, 46.6608064], [17.1156898, 46.6562588], [17.1524847, 46.6481188], [17.1750752, 46.63478], [17.1974445, 46.6435288], [17.1987467, 46.6538351], [17.2093472, 46.6596072], [17.2211078, 46.6549017], [17.2214961, 46.6716935], [17.244882, 46.67937], [17.2568178, 46.6872639], [17.2690185, 46.7338671], [17.3614537, 46.7316558], [17.3722287, 46.734195], [17.3974458, 46.7483692], [17.4190599, 46.7506565], [17.4172439, 46.7574499], [17.3614258, 46.7931052], [17.3507023, 46.8165589], [17.3342667, 46.82736], [17.3258917, 46.8291369], [17.3259048, 46.8459], [17.3355035, 46.8582324], [17.3313273, 46.8673074], [17.3229124, 46.869846], [17.3177076, 46.8762454], [17.3264427, 46.8809465], [17.326783, 46.887808], [17.3221527, 46.8934538], [17.3047584, 46.8988989], [17.3050745, 46.9061445], [17.2964781, 46.91401], [17.2840373, 46.9206748], [17.2563857, 46.9164315], [17.2518222, 46.919788], [17.2418724, 46.9181122], [17.2200648, 46.9219496], [17.2113453, 46.9168624], [17.2011876, 46.9212675], [17.1923516, 46.9195991], [17.1688625, 46.907789], [17.1481252, 46.9127773], [17.1415568, 46.9100019], [17.1422879, 46.8894438], [17.1373445, 46.8878422], [17.1369834, 46.8824983], [17.138384, 46.874146], [17.1441025, 46.8696664], [17.1490576, 46.8708959], [17.1527454, 46.8606721], [17.1258041, 46.8533642], [17.1330199, 46.8534857], [17.1342576, 46.8496937], [17.1315804, 46.8469828], [17.1376846, 46.8470853], [17.1434182, 46.8418496], [17.1436207, 46.8361431], [17.1336991, 46.8344517], [17.1326539, 46.8169139], [17.1116451, 46.8150336], [17.1080538, 46.8222075], [17.1024431, 46.8240152], [17.0858827, 46.8214496], [17.0786583, 46.8369422], [17.0733253, 46.8311337], [17.0653792, 46.8359493], [17.0526705, 46.8342023], [17.0492992, 46.8204292], [17.0718112, 46.8065393], [17.0607566, 46.7958738], [17.0603523, 46.7916757], [17.0559233, 46.7915983], [17.0562057, 46.7839836], [17.062359, 46.7825659], [17.063106, 46.7772471], [17.0604123, 46.7600576], [17.0577151, 46.7581071], [17.0593029, 46.7451834], [17.0567617, 46.7390444], [17.0723415, 46.7221736], [17.0682454, 46.7129638], [17.0582835, 46.7127899], [17.0507212, 46.7077036], [17.033659, 46.7051147], [17.0346784, 46.6925656], [17.0292074, 46.6909433], [17.0271498, 46.6867156], [17.0312634, 46.6803159], [17.0299357, 46.6715257], [17.0266146, 46.6714666], [17.0220529, 46.6603432]]]}}, {"type": "Feature", "properties": {"nev": "Balatonfüredi járás", "osm": 2376985}, "geometry": {"type": "Polygon", "coordinates": [[[17.6229367, 46.8956057], [17.6399696, 46.891228], [17.6511899, 46.8811277], [17.6522577, 46.8786529], [17.6450166, 46.874381], [17.6366454, 46.8613795], [17.6393665, 46.8472886], [17.6357551, 46.8426017], [17.6673184, 46.8119775], [17.698594, 46.8286893], [17.7296165, 46.8404031], [17.7884767, 46.8535793], [17.85411, 46.8843673], [17.8782322, 46.8781272], [17.8890579, 46.8798677], [17.9102737, 46.894094], [17.9124167, 46.907271], [17.9075575, 46.9159057], [17.9756967, 46.933424], [18.0316464, 46.9531383], [18.0158423, 46.9979622], [17.9939493, 47.0058409], [17.9914416, 47.0147747], [17.9880068, 47.0108315], [17.9696807, 47.0147865], [17.9613507, 46.9949729], [17.9576406, 47.0062739], [17.9521995, 47.0040497], [17.9511509, 46.9993945], [17.9444066, 47.0110022], [17.9352009, 47.0169682], [17.9307921, 47.0140583], [17.9198009, 47.0212186], [17.8739656, 47.0022609], [17.8668107, 47.0054601], [17.8608713, 46.9990194], [17.8396162, 46.9948729], [17.8367088, 46.990946], [17.820998, 46.9942694], [17.8148708, 46.989834], [17.8022014, 46.9892802], [17.791871, 46.9843143], [17.7861639, 46.9864001], [17.7788548, 46.9782549], [17.7454466, 46.9617467], [17.7440205, 46.9589813], [17.7469572, 46.957805], [17.7385439, 46.9415571], [17.723984, 46.9407622], [17.7121684, 46.9277623], [17.7059108, 46.9270195], [17.7023805, 46.9333801], [17.7051797, 46.9373784], [17.6970025, 46.9370947], [17.6842267, 46.962146], [17.6727704, 46.9610084], [17.6619115, 46.9677659], [17.6513583, 46.9665103], [17.6485107, 46.9492121], [17.6508725, 46.9471938], [17.6261311, 46.941252], [17.6385121, 46.9194134], [17.6287769, 46.9159602], [17.6311524, 46.9102744], [17.6235384, 46.9040863], [17.6253231, 46.89954], [17.6229367, 46.8956057]]]}}, {"type": "Feature", "properties": {"nev": "Fonyódi járás", "osm": 2376281}, "geometry": {"type": "Polygon", "coordinates": [[[17.4364311, 46.7487717], [17.4379199, 46.7063414], [17.4405971, 46.6910431], [17.4459436, 46.6922507], [17.4419526, 46.6590536], [17.4717562, 46.6613804], [17.503448, 46.6557159], [17.4986158, 46.708212], [17.5123644, 46.7114485], [17.5250414, 46.6548668], [17.5335201, 46.6485084], [17.5330909, 46.6439278], [17.5449289, 46.6360884], [17.5524772, 46.6228602], [17.556249, 46.6065321], [17.5618743, 46.6027935], [17.5845411, 46.6023257], [17.6002005, 46.5335944], [17.6048623, 46.5245104], [17.6148415, 46.522734], [17.639952, 46.5329485], [17.639286, 46.5371306], [17.6503313, 46.5368892], [17.6650523, 46.5439257], [17.6947351, 46.5488525], [17.704858, 46.5413546], [17.7044245, 46.5363966], [17.7213896, 46.5423117], [17.7258829, 46.5389363], [17.7307919, 46.5416565], [17.7271621, 46.5545659], [17.7336615, 46.5595942], [17.7413871, 46.5596835], [17.7408798, 46.5806231], [17.7353342, 46.5816997], [17.7484707, 46.5864256], [17.7645593, 46.583559], [17.7649535, 46.5900411], [17.7870469, 46.5902887], [17.7893824, 46.5849838], [17.8070783, 46.584032], [17.8071308, 46.5817515], [17.8120919, 46.5821837], [17.8169402, 46.5875673], [17.8130219, 46.6138069], [17.8038486, 46.6281744], [17.7989202, 46.6502123], [17.8292658, 46.6532073], [17.8327836, 46.6441021], [17.8412242, 46.6377207], [17.8468899, 46.6564447], [17.8661722, 46.6596904], [17.8632667, 46.6661377], [17.8814133, 46.6708938], [17.8854322, 46.6640794], [17.8931983, 46.6633961], [17.9063525, 46.6688598], [17.9025216, 46.6931938], [17.8815095, 46.6922239], [17.8780458, 46.6986596], [17.8895662, 46.7033459], [17.8866365, 46.710934], [17.8920705, 46.715942], [17.8880734, 46.7216101], [17.8819162, 46.7245969], [17.8664417, 46.7229124], [17.8613915, 46.7259095], [17.8576035, 46.7249843], [17.8599617, 46.7165082], [17.8483553, 46.7147269], [17.840006, 46.7165415], [17.8388098, 46.7231317], [17.8062177, 46.7204471], [17.8071383, 46.726], [17.7963828, 46.7411048], [17.79708, 46.7498615], [17.7919627, 46.7586801], [17.7896309, 46.7581963], [17.7894738, 46.7665543], [17.7799918, 46.7816976], [17.7607419, 46.786665], [17.7587501, 46.79014], [17.736122, 46.7841844], [17.7350629, 46.7889026], [17.7253769, 46.7964716], [17.698594, 46.8286893], [17.6673184, 46.8119775], [17.6249306, 46.8015868], [17.5337662, 46.7714753], [17.4918651, 46.7530279], [17.4364311, 46.7487717]]]}}, {"type": "Feature", "properties": {"nev": "Veszprémi járás", "osm": 2377042}, "geometry": {"type": "Polygon", "coordinates": [[[17.5988236, 47.0365273], [17.610775, 47.0294334], [17.6238788, 47.0269897], [17.6289449, 46.9936573], [17.6185711, 46.9859098], [17.6181103, 46.9824762], [17.6269699, 46.9841115], [17.6313137, 46.9883558], [17.6464267, 46.9847299], [17.6513583, 46.9665103], [17.6619115, 46.9677659], [17.6727704, 46.9610084], [17.6842267, 46.962146], [17.6970025, 46.9370947], [17.7051797, 46.9373784], [17.7023805, 46.9333801], [17.7059108, 46.9270195], [17.7136919, 46.9280773], [17.723984, 46.9407622], [17.7385439, 46.9415571], [17.7469572, 46.957805], [17.7440205, 46.9589813], [17.7454466, 46.9617467], [17.7788548, 46.9782549], [17.7861639, 46.9864001], [17.791871, 46.9843143], [17.8022014, 46.9892802], [17.8148708, 46.989834], [17.820998, 46.9942694], [17.8367088, 46.990946], [17.8396162, 46.9948729], [17.8608713, 46.9990194], [17.8668107, 47.0054601], [17.8739656, 47.0022609], [17.9140736, 47.0178211], [17.9006034, 47.0267343], [17.908094, 47.036127], [17.9148355, 47.035163], [17.9153045, 47.0463304], [17.9334555, 47.0489676], [17.9465204, 47.0348275], [17.962765, 47.0294422], [17.9884595, 47.0320219], [17.9961588, 47.0383284], [17.9829057, 47.0432256], [17.9928746, 47.046736], [17.9897933, 47.0616872], [17.9960695, 47.0686274], [17.9954874, 47.0737051], [17.9843968, 47.0799427], [17.9887185, 47.0840915], [17.9874434, 47.0960837], [17.9900162, 47.0971786], [17.9871448, 47.1016622], [17.9924778, 47.1162385], [18.0245517, 47.1151708], [18.041684, 47.1233242], [18.0467902, 47.1187947], [18.0643709, 47.1334194], [18.0653616, 47.1402829], [18.061344, 47.1463411], [18.0347739, 47.1640094], [18.0139824, 47.1710571], [18.0064859, 47.1835589], [17.99569, 47.1925964], [17.9944364, 47.1994399], [17.9871511, 47.2008976], [17.9788219, 47.1981551], [17.9748437, 47.2015455], [17.9546857, 47.2036424], [17.9590502, 47.2090142], [17.927489, 47.2216584], [17.927545, 47.2189937], [17.9130613, 47.2169425], [17.9112895, 47.2211149], [17.9040071, 47.2221892], [17.9041133, 47.217238], [17.8845846, 47.215517], [17.8958764, 47.2103005], [17.8925812, 47.2084882], [17.8955829, 47.2054211], [17.8869709, 47.193113], [17.8732373, 47.1924352], [17.8748784, 47.179882], [17.8705163, 47.1775938], [17.8367893, 47.1803937], [17.8286963, 47.191328], [17.8336711, 47.1936617], [17.8055685, 47.2009786], [17.804845, 47.207826], [17.7965065, 47.2062107], [17.7937688, 47.2038998], [17.7955222, 47.2004913], [17.7904319, 47.2031009], [17.7919881, 47.2080704], [17.7806052, 47.2170815], [17.7728844, 47.2124279], [17.7536017, 47.224398], [17.7596491, 47.2282717], [17.753953, 47.232782], [17.743477, 47.2269487], [17.7497279, 47.2224514], [17.7288207, 47.2092647], [17.7225509, 47.214145], [17.7302491, 47.2191799], [17.7216935, 47.2259367], [17.7227649, 47.227852], [17.7160517, 47.2281586], [17.7094915, 47.2223674], [17.7038981, 47.2223021], [17.7013465, 47.2127515], [17.6946737, 47.2115325], [17.6877972, 47.2183067], [17.6851028, 47.2144627], [17.6783918, 47.2143828], [17.6746385, 47.2082449], [17.6771102, 47.199138], [17.686679, 47.1962023], [17.6955375, 47.1993566], [17.7035185, 47.1933574], [17.7082305, 47.1835074], [17.6969116, 47.1673827], [17.690857, 47.1638835], [17.6886888, 47.1394854], [17.670073, 47.125552], [17.6698444, 47.1126006], [17.6643013, 47.111387], [17.6623452, 47.1007018], [17.6518453, 47.0971465], [17.6558957, 47.0914869], [17.6762576, 47.0803025], [17.7464435, 47.0605598], [17.7462512, 47.0477966], [17.7321201, 47.0506303], [17.7289161, 47.0551952], [17.710723, 47.0490999], [17.7022981, 47.0614839], [17.6838877, 47.0552542], [17.6795613, 47.0613704], [17.6703248, 47.0582534], [17.6657389, 47.064415], [17.6571396, 47.0614615], [17.6506305, 47.0703077], [17.6516739, 47.0734009], [17.6447334, 47.0724801], [17.6439392, 47.075007], [17.621873, 47.0646571], [17.6202756, 47.0690652], [17.6257044, 47.0741613], [17.6192764, 47.0778815], [17.6220865, 47.0714342], [17.6180183, 47.0714083], [17.6118954, 47.0612092], [17.6026937, 47.0610526], [17.6031272, 47.0459762], [17.5988236, 47.0365273]]]}}, {"type": "Feature", "properties": {"nev": "Balatonalmádi járás", "osm": 2376975}, "geometry": {"type": "Polygon", "coordinates": [[[17.9006034, 47.0267343], [17.9140736, 47.0178211], [17.9198009, 47.0212186], [17.9307921, 47.0140583], [17.9352009, 47.0169682], [17.94913, 47.0067005], [17.9511509, 46.9993945], [17.9521995, 47.0040497], [17.9576406, 47.0062739], [17.9597223, 46.9951539], [17.9648647, 46.9985129], [17.9653255, 47.0075689], [17.9696807, 47.0147865], [17.9880068, 47.0108315], [17.9914416, 47.0147747], [17.9939493, 47.0058409], [18.0158423, 46.9979622], [18.0316464, 46.9531383], [18.0666401, 46.9697345], [18.1668219, 46.9972939], [18.1672828, 46.9946023], [18.1757986, 46.9936978], [18.181036, 46.9882697], [18.1894387, 46.9897193], [18.2059605, 46.9716706], [18.2063291, 46.9826574], [18.2126552, 46.9994114], [18.2281854, 47.0033293], [18.2352523, 47.0140403], [18.2618819, 47.020319], [18.2584742, 47.0252477], [18.2390619, 47.0197819], [18.2344681, 47.0292694], [18.2130033, 47.0485394], [18.2036045, 47.0793117], [18.1980285, 47.0796547], [18.193389, 47.0906588], [18.170055, 47.0859145], [18.170205, 47.0767798], [18.1418093, 47.0746497], [18.1298337, 47.0905514], [18.1181889, 47.08703], [18.1164598, 47.0904435], [18.1225339, 47.0939202], [18.1119892, 47.0907851], [18.1084762, 47.1006609], [18.0994272, 47.1078194], [18.0955086, 47.1081712], [18.0950093, 47.1051176], [18.0784488, 47.0958428], [18.0722592, 47.0988335], [18.0628697, 47.0941851], [18.0507435, 47.116164], [18.041684, 47.1233242], [18.0245517, 47.1151708], [17.9924778, 47.1162385], [17.9871448, 47.1016622], [17.9900162, 47.0971786], [17.9874434, 47.0960837], [17.9887185, 47.0840915], [17.9843968, 47.0799427], [17.9954874, 47.0737051], [17.9960695, 47.0686274], [17.9897933, 47.0616872], [17.9928746, 47.046736], [17.9829057, 47.0432256], [17.9954517, 47.0391491], [17.9934525, 47.035321], [17.9800305, 47.0291847], [17.962765, 47.0294422], [17.9465204, 47.0348275], [17.9334555, 47.0489676], [17.9153045, 47.0463304], [17.9148355, 47.035163], [17.908094, 47.036127], [17.9006034, 47.0267343]]]}}, {"type": "Feature", "properties": {"nev": "Siófoki járás", "osm": 2376318}, "geometry": {"type": "Polygon", "coordinates": [[[17.698594, 46.8286893], [17.7253769, 46.7964716], [17.7350629, 46.7889026], [17.736122, 46.7841844], [17.7587501, 46.79014], [17.7607419, 46.786665], [17.7799918, 46.7816976], [17.7894738, 46.7665543], [17.7896309, 46.7581963], [17.7919627, 46.7586801], [17.79708, 46.7498615], [17.7963828, 46.7411048], [17.80313, 46.7337805], [17.8085115, 46.7198733], [17.8388098, 46.7231317], [17.840006, 46.7165415], [17.8433732, 46.7146742], [17.8599617, 46.7165082], [17.8576035, 46.7249843], [17.8896821, 46.7239138], [17.8868417, 46.7273126], [17.893426, 46.730045], [17.8949536, 46.7361536], [17.8904053, 46.7418225], [17.9025021, 46.7457508], [17.9042103, 46.743865], [17.9124401, 46.7473752], [17.9215171, 46.7371821], [17.9397018, 46.7419289], [17.947848, 46.7496259], [17.9771959, 46.7506682], [17.9918835, 46.7645162], [17.9933704, 46.7732061], [18.0036673, 46.7851911], [17.992438, 46.7923211], [18.0045921, 46.7947203], [17.9983811, 46.800372], [18.0005786, 46.8015389], [18.0090536, 46.7936144], [18.0050185, 46.8015796], [18.0117061, 46.7997315], [18.0138454, 46.8039411], [18.0086706, 46.8134146], [18.0230055, 46.8177346], [18.0247535, 46.8131821], [18.030848, 46.8136147], [18.0280986, 46.8124497], [18.0292593, 46.8097948], [18.0387965, 46.8037867], [18.0486238, 46.7825449], [18.0564451, 46.7791856], [18.0762745, 46.7862118], [18.0903082, 46.776432], [18.1129834, 46.7792856], [18.1232157, 46.7645181], [18.1349072, 46.7611848], [18.1379914, 46.7425466], [18.1435134, 46.743353], [18.1412342, 46.7475249], [18.1506144, 46.7495021], [18.1562727, 46.7426913], [18.1722903, 46.7451028], [18.1721291, 46.7550001], [18.1663932, 46.7671415], [18.1746189, 46.7721573], [18.1868437, 46.7703475], [18.2000269, 46.778064], [18.210779, 46.778241], [18.2036845, 46.7921796], [18.2046689, 46.8001825], [18.1983638, 46.8130837], [18.2051607, 46.8390301], [18.1975501, 46.8644914], [18.2062088, 46.8673624], [18.1894457, 46.8732105], [18.2128377, 46.8871771], [18.2080054, 46.8955838], [18.2097743, 46.8972841], [18.1917777, 46.9231066], [18.1936237, 46.9280589], [18.174226, 46.9462121], [18.2052486, 46.9716309], [18.1894387, 46.9897193], [18.181036, 46.9882697], [18.1757986, 46.9936978], [18.1672828, 46.9946023], [18.1672729, 46.997306], [18.0666401, 46.9697345], [18.0078022, 46.9440363], [17.9075575, 46.9159057], [17.9124167, 46.907271], [17.9102737, 46.894094], [17.8890579, 46.8798677], [17.8782322, 46.8781272], [17.85411, 46.8843673], [17.7884767, 46.8535793], [17.7296165, 46.8404031], [17.698594, 46.8286893]]]}}, {"type": "Feature", "properties": {"nev": "Tapolcai járás", "osm": 2377009}, "geometry": {"type": "Polygon", "coordinates": [[[17.2964781, 46.91401], [17.3050745, 46.9061445], [17.3047584, 46.8988989], [17.3221527, 46.8934538], [17.326783, 46.887808], [17.3264427, 46.8809465], [17.3177076, 46.8762454], [17.3229124, 46.869846], [17.3313273, 46.8673074], [17.3355035, 46.8582324], [17.3259048, 46.8459], [17.3258917, 46.8291369], [17.3342667, 46.82736], [17.3507023, 46.8165589], [17.3614258, 46.7931052], [17.4172439, 46.7574499], [17.4190599, 46.7506565], [17.4454774, 46.7477886], [17.4649645, 46.7529006], [17.4918651, 46.7530279], [17.5337662, 46.7714753], [17.6249306, 46.8015868], [17.6673184, 46.8119775], [17.6357551, 46.8426017], [17.6393665, 46.8472886], [17.6366454, 46.8613795], [17.6450166, 46.874381], [17.6522577, 46.8786529], [17.6511899, 46.8811277], [17.6399696, 46.891228], [17.6229367, 46.8956057], [17.6253231, 46.89954], [17.6235384, 46.9040863], [17.6311524, 46.9102744], [17.6287769, 46.9159602], [17.6385121, 46.9194134], [17.6261311, 46.941252], [17.6508725, 46.9471938], [17.6485107, 46.9492121], [17.6519006, 46.9668951], [17.6464267, 46.9847299], [17.6313137, 46.9883558], [17.6269699, 46.9841115], [17.6181103, 46.9824762], [17.6179883, 46.9870431], [17.6102422, 46.985421], [17.5960867, 46.9943853], [17.5788009, 47.0158725], [17.558825, 47.0133268], [17.555567, 47.0102407], [17.5348695, 47.0137748], [17.5299029, 47.0121902], [17.5257802, 47.0007047], [17.5191288, 46.9994754], [17.4928608, 47.0033115], [17.4965567, 47.0102177], [17.4904, 47.0112746], [17.4668376, 46.9797209], [17.464342, 46.9697865], [17.4525108, 46.9562879], [17.4463935, 46.9562022], [17.4360644, 46.9667193], [17.4065482, 46.967824], [17.3935981, 46.9546872], [17.3950284, 46.9444236], [17.3866044, 46.946967], [17.3802801, 46.9358341], [17.3618395, 46.9210882], [17.348317, 46.9269815], [17.3399785, 46.926857], [17.3393054, 46.9306533], [17.3298539, 46.9305114], [17.3266844, 46.9255166], [17.2964781, 46.91401]]]}}, {"type": "Feature", "properties": {"nev": "Ajkai járás", "osm": 2376965}, "geometry": {"type": "Polygon", "coordinates": [[[17.3551685, 46.9564116], [17.3669613, 46.9527733], [17.3834642, 46.9408275], [17.3866044, 46.946967], [17.3950284, 46.9444236], [17.3935981, 46.9546872], [17.4065482, 46.967824], [17.4360644, 46.9667193], [17.4463935, 46.9562022], [17.4525108, 46.9562879], [17.464342, 46.9697865], [17.4668376, 46.9797209], [17.4904, 47.0112746], [17.4965567, 47.0102177], [17.4928608, 47.0033115], [17.5191288, 46.9994754], [17.5257802, 47.0007047], [17.5299029, 47.0121902], [17.5348695, 47.0137748], [17.555567, 47.0102407], [17.558825, 47.0133268], [17.5788009, 47.0158725], [17.5960867, 46.9943853], [17.6102422, 46.985421], [17.6185711, 46.9859098], [17.6289449, 46.9936573], [17.6238788, 47.0269897], [17.610775, 47.0294334], [17.5988236, 47.0365273], [17.6031272, 47.0459762], [17.6026937, 47.0610526], [17.6118954, 47.0612092], [17.6180183, 47.0714083], [17.6220865, 47.0714342], [17.6185833, 47.0777398], [17.6257044, 47.0741613], [17.6202756, 47.0690652], [17.621873, 47.0646571], [17.6439392, 47.075007], [17.6447334, 47.0724801], [17.6516739, 47.0734009], [17.6506305, 47.0703077], [17.6571396, 47.0614615], [17.6657389, 47.064415], [17.6703248, 47.0582534], [17.6795613, 47.0613704], [17.6838877, 47.0552542], [17.7022981, 47.0614839], [17.710723, 47.0490999], [17.7289161, 47.0551952], [17.7321201, 47.0506303], [17.7462512, 47.0477966], [17.7464435, 47.0605598], [17.6762576, 47.0803025], [17.6524585, 47.0948667], [17.6518453, 47.0971465], [17.6623452, 47.1007018], [17.6643013, 47.111387], [17.6698444, 47.1126006], [17.670073, 47.125552], [17.6886888, 47.1394854], [17.690857, 47.1638835], [17.6969116, 47.1673827], [17.7082305, 47.1835074], [17.7035185, 47.1933574], [17.6955375, 47.1993566], [17.686679, 47.1962023], [17.6771102, 47.199138], [17.6746385, 47.2082449], [17.6420703, 47.1929991], [17.6356735, 47.2024414], [17.6371438, 47.2104555], [17.6228703, 47.2209121], [17.5915951, 47.2003656], [17.5792832, 47.2009712], [17.5755605, 47.2094853], [17.5648957, 47.2160222], [17.5622633, 47.2102731], [17.5560954, 47.2109555], [17.5484363, 47.2051468], [17.5226564, 47.2078506], [17.5227762, 47.2036619], [17.511625, 47.2027507], [17.5151109, 47.1982289], [17.5218106, 47.1983182], [17.5058098, 47.1912485], [17.5070488, 47.1870749], [17.5288574, 47.1862252], [17.5329385, 47.1801858], [17.5222603, 47.1629049], [17.5303852, 47.152351], [17.5331402, 47.1337231], [17.5309591, 47.1321693], [17.5354443, 47.1254173], [17.5205724, 47.1244193], [17.5137946, 47.1273724], [17.4942785, 47.1076886], [17.4957822, 47.0943753], [17.5059375, 47.0903221], [17.5198433, 47.0718502], [17.5300682, 47.0651303], [17.5241971, 47.0562934], [17.5266675, 47.0475674], [17.498654, 47.0338577], [17.4790694, 47.0370188], [17.4597562, 47.0306587], [17.4407346, 47.0334429], [17.4252286, 47.0305584], [17.4138941, 47.0368688], [17.4073317, 47.0329687], [17.4034704, 47.0134854], [17.3809482, 47.0036375], [17.384973, 46.9995055], [17.3869792, 46.9888722], [17.3571651, 46.9812006], [17.3720999, 46.9661832], [17.3551685, 46.9564116]]]}}, {"type": "Feature", "properties": {"nev": "Marcali járás", "osm": 2376284}, "geometry": {"type": "Polygon", "coordinates": [[[17.1881748, 46.4315919], [17.192237, 46.4255644], [17.1933191, 46.4099591], [17.2196179, 46.4138159], [17.2258913, 46.4074449], [17.249707, 46.4032572], [17.2544923, 46.3751442], [17.2446174, 46.3742245], [17.2443409, 46.3494655], [17.2591971, 46.3493174], [17.2731897, 46.3419191], [17.2836049, 46.3428449], [17.2921638, 46.3673544], [17.310861, 46.3676434], [17.3108204, 46.385931], [17.305323, 46.3858463], [17.3056854, 46.3915616], [17.3173573, 46.3925013], [17.318147, 46.3848944], [17.3236686, 46.3842163], [17.3431329, 46.390992], [17.3482281, 46.3864999], [17.3526741, 46.3896085], [17.3682526, 46.3841254], [17.3831294, 46.3835893], [17.4039916, 46.3850354], [17.4086798, 46.3892961], [17.412701, 46.3882056], [17.4139535, 46.3787037], [17.418008, 46.376479], [17.4288963, 46.3804419], [17.4334043, 46.3907927], [17.4467259, 46.3917428], [17.451946, 46.3781061], [17.4581027, 46.3789535], [17.4581992, 46.3945704], [17.4609485, 46.3946091], [17.4639966, 46.4034112], [17.4578971, 46.4048505], [17.4581972, 46.413236], [17.4669812, 46.4141155], [17.4700424, 46.4225394], [17.464898, 46.4289456], [17.4597938, 46.4528647], [17.4971903, 46.4697633], [17.5168868, 46.4749845], [17.5213335, 46.4735196], [17.5194463, 46.4818753], [17.5249322, 46.4827117], [17.5203451, 46.4891217], [17.5217482, 46.4979061], [17.5424762, 46.5061803], [17.546713, 46.5123301], [17.541665, 46.5153068], [17.5421364, 46.518363], [17.561855, 46.5235764], [17.5902058, 46.5155637], [17.6024979, 46.4890596], [17.6245591, 46.488961], [17.624996, 46.4931569], [17.6309713, 46.4966536], [17.6290503, 46.5069135], [17.6339731, 46.5085], [17.6309491, 46.518368], [17.6419313, 46.5204079], [17.6411258, 46.5302975], [17.639952, 46.5329485], [17.6148415, 46.522734], [17.6048623, 46.5245104], [17.5941749, 46.5525604], [17.5845411, 46.6023257], [17.5618743, 46.6027935], [17.556249, 46.6065321], [17.5524772, 46.6228602], [17.5449289, 46.6360884], [17.5330909, 46.6439278], [17.5335201, 46.6485084], [17.5250414, 46.6548668], [17.5123644, 46.7114485], [17.4986158, 46.708212], [17.503448, 46.6557159], [17.4717562, 46.6613804], [17.4419526, 46.6590536], [17.4459436, 46.6922507], [17.4405971, 46.6910431], [17.4379199, 46.7063414], [17.4364311, 46.7487717], [17.4190599, 46.7506565], [17.3974458, 46.7483692], [17.3722287, 46.734195], [17.3614537, 46.7316558], [17.2690185, 46.7338671], [17.2568178, 46.6872639], [17.244882, 46.67937], [17.2214961, 46.6716935], [17.2211078, 46.6549017], [17.2182691, 46.6491979], [17.2220705, 46.6347831], [17.2151427, 46.6106868], [17.2267858, 46.5118287], [17.2146655, 46.4948695], [17.2047912, 46.4935684], [17.2012331, 46.4847504], [17.193975, 46.4872976], [17.1901704, 46.4857101], [17.1945567, 46.4836339], [17.1889433, 46.4731233], [17.1952666, 46.4656077], [17.1943221, 46.4450219], [17.1881748, 46.4315919]]]}}, {"type": "Feature", "properties": {"nev": "Nagykanizsai járás", "osm": 2377098}, "geometry": {"type": "Polygon", "coordinates": [[[16.8263689, 46.4822047], [16.833353, 46.4731961], [16.8367135, 46.4584057], [16.8427886, 46.4581461], [16.8453819, 46.4486667], [16.851425, 46.4491686], [16.8500302, 46.4426622], [16.8606359, 46.439439], [16.8558195, 46.4222081], [16.8624922, 46.4208121], [16.8655036, 46.4143909], [16.8600339, 46.3998137], [16.86286, 46.3979587], [16.8619276, 46.3937555], [16.8661872, 46.3920191], [16.8627443, 46.387292], [16.8699586, 46.385906], [16.869069, 46.3668417], [16.8615113, 46.3632668], [16.8519065, 46.3695598], [16.8506987, 46.3546462], [16.8568038, 46.3522301], [16.8657608, 46.3546579], [16.86691, 46.3512402], [16.861799, 46.3464678], [16.8735224, 46.343145], [16.8721637, 46.3363893], [16.8799078, 46.3362604], [16.8735023, 46.3232641], [16.878081, 46.3205444], [16.8762527, 46.3250788], [16.8856341, 46.3241119], [16.8869161, 46.319567], [16.8935965, 46.317413], [16.8970923, 46.3125258], [16.9359413, 46.3170666], [16.9343062, 46.3025587], [16.939264, 46.3022733], [16.9391484, 46.2912226], [16.9517025, 46.2933601], [16.9633754, 46.3042467], [16.9781671, 46.3052816], [16.9854725, 46.3157012], [17.006513, 46.3115083], [17.0133683, 46.304775], [17.0269195, 46.3095941], [17.0295313, 46.3134476], [17.0409518, 46.3167017], [17.0374973, 46.3208251], [17.0371864, 46.3292018], [17.0426019, 46.3315859], [17.0461804, 46.3388847], [17.058237, 46.3398604], [17.0550086, 46.3679942], [17.0467148, 46.3689883], [17.0438121, 46.373128], [17.0468667, 46.3796548], [17.0432762, 46.3875952], [17.02973, 46.3964927], [17.0369637, 46.4091951], [17.0372642, 46.4160576], [17.0543147, 46.4167377], [17.0546235, 46.408361], [17.0686224, 46.4017499], [17.0777026, 46.405012], [17.0798752, 46.4159914], [17.0874542, 46.4205603], [17.1138597, 46.414728], [17.1147056, 46.4063604], [17.1279432, 46.4058235], [17.1394296, 46.4079214], [17.1413382, 46.4273789], [17.1804203, 46.4326048], [17.1883001, 46.4292358], [17.1943221, 46.4450219], [17.1952666, 46.4656077], [17.1889433, 46.4731233], [17.1945567, 46.4836339], [17.1901704, 46.4857101], [17.2012331, 46.4847504], [17.2047912, 46.4935684], [17.2146655, 46.4948695], [17.2267858, 46.5118287], [17.2151427, 46.6106868], [17.2220705, 46.6347831], [17.2182821, 46.6488137], [17.2211078, 46.6549017], [17.2093472, 46.6596072], [17.1987467, 46.6538351], [17.1974445, 46.6435288], [17.1750752, 46.63478], [17.1524847, 46.6481188], [17.1156898, 46.6562588], [17.114419, 46.6608064], [17.1084271, 46.6584227], [17.1005972, 46.6605703], [17.0965621, 46.6650765], [17.0817299, 46.6621485], [17.0754466, 46.6525166], [17.0725308, 46.656657], [17.0538754, 46.6525242], [17.0570316, 46.6419158], [17.0544675, 46.6365327], [17.0486906, 46.6432882], [17.0496274, 46.6478802], [17.0424253, 46.6481314], [17.0414605, 46.6443076], [17.0407984, 46.6473401], [17.0369067, 46.6476556], [17.0366567, 46.6396471], [17.0220629, 46.6454821], [17.0234653, 46.6668412], [17.0299357, 46.6715257], [17.0312634, 46.6803159], [17.0265775, 46.6870836], [17.0121568, 46.6879731], [17.0130626, 46.6933213], [17.0079825, 46.6958962], [17.0066293, 46.7023509], [17.00031, 46.7083318], [16.9820737, 46.7049387], [16.9769115, 46.697622], [16.9427038, 46.6947056], [16.930381, 46.6982835], [16.9066007, 46.6978379], [16.9013517, 46.6905032], [16.9015796, 46.6847909], [16.8919283, 46.6769943], [16.8916843, 46.6693696], [16.880857, 46.649732], [16.8764922, 46.6481295], [16.8699822, 46.6312392], [16.8713821, 46.5966003], [16.8767202, 46.5875572], [16.8767393, 46.5734644], [16.8726727, 46.5646254], [16.877674, 46.5502437], [16.8845207, 46.5446642], [16.8844007, 46.5339912], [16.8873456, 46.5306213], [16.8768492, 46.5296554], [16.8749323, 46.5223829], [16.867214, 46.5222345], [16.86029, 46.5160061], [16.8626501, 46.4985296], [16.8424152, 46.494324], [16.8263689, 46.4822047]]]}}, {"type": "Feature", "properties": {"nev": "Tabi járás", "osm": 2376330}, "geometry": {"type": "Polygon", "coordinates": [[[17.7989202, 46.6502123], [17.8038486, 46.6281744], [17.8148595, 46.6058245], [17.8264843, 46.6051877], [17.8306684, 46.5911432], [17.8401464, 46.5870543], [17.8442237, 46.5775765], [17.8613428, 46.5777569], [17.8907824, 46.5696868], [17.8940492, 46.5720011], [17.9167237, 46.5703266], [17.941451, 46.5762855], [17.9409408, 46.5739933], [17.9676997, 46.5613027], [17.9825814, 46.5625839], [17.9966101, 46.5790911], [17.9961379, 46.5715456], [18.0052345, 46.5616539], [18.0112565, 46.5643745], [18.0195748, 46.562163], [18.0217052, 46.5663724], [18.0365968, 46.5672685], [18.037816, 46.5611864], [18.0501031, 46.5536774], [18.0632881, 46.5568422], [18.0730586, 46.566063], [18.078852, 46.5817262], [18.084907, 46.5829245], [18.0874493, 46.5951319], [18.0709538, 46.6212659], [18.0752964, 46.6258776], [18.0884803, 46.6301736], [18.0893835, 46.6416109], [18.1080465, 46.6493784], [18.1018162, 46.6577068], [18.1100216, 46.6631054], [18.1072316, 46.6646071], [18.1126527, 46.6707448], [18.1313485, 46.6773743], [18.1284088, 46.6876335], [18.132811, 46.6888095], [18.1262234, 46.6945782], [18.1410306, 46.6938277], [18.1381499, 46.70066], [18.1469723, 46.7026331], [18.1413236, 46.7090592], [18.1303296, 46.7044029], [18.1144133, 46.7286451], [18.137551, 46.7360721], [18.1371965, 46.7570132], [18.1349072, 46.7611848], [18.1304836, 46.7603869], [18.1215211, 46.7660229], [18.1129834, 46.7792856], [18.0903082, 46.776432], [18.0762745, 46.7862118], [18.0564451, 46.7791856], [18.0486238, 46.7825449], [18.0387965, 46.8037867], [18.0292593, 46.8097948], [18.0280986, 46.8124497], [18.030848, 46.8136147], [18.0247535, 46.8131821], [18.0230055, 46.8177346], [18.0136547, 46.8138443], [18.0130437, 46.816504], [18.0086706, 46.8134146], [18.0138454, 46.8039411], [18.0117061, 46.7997315], [18.0050185, 46.8015796], [18.0090536, 46.7936144], [18.0005786, 46.8015389], [17.9983811, 46.800372], [18.0045921, 46.7947203], [17.992438, 46.7923211], [18.0036673, 46.7851911], [17.9933704, 46.7732061], [17.9918835, 46.7645162], [17.9804758, 46.7526019], [17.9716742, 46.7494756], [17.947848, 46.7496259], [17.9397018, 46.7419289], [17.9215171, 46.7371821], [17.9124401, 46.7473752], [17.8904053, 46.7418225], [17.8949536, 46.7361536], [17.893426, 46.730045], [17.8868417, 46.7273126], [17.8896821, 46.7239138], [17.8863817, 46.7227396], [17.8920705, 46.715942], [17.8866365, 46.710934], [17.8895662, 46.7033459], [17.8780458, 46.6986596], [17.8815095, 46.6922239], [17.9025216, 46.6931938], [17.9063525, 46.6688598], [17.8931983, 46.6633961], [17.8854322, 46.6640794], [17.8814133, 46.6708938], [17.8632667, 46.6661377], [17.8661722, 46.6596904], [17.8468899, 46.6564447], [17.8412242, 46.6377207], [17.8327836, 46.6441021], [17.8292658, 46.6532073], [17.7989202, 46.6502123]]]}}]}